NAVSTAR 77 (USA 289)    
1 43873U 18109A   24183.28995562 -.00000013  00000+0  00000+0 0  9991
2 43873  55.3022 120.4710 0029202 194.8939 337.0702  2.00556532 40719
